LAPAN-A3                
1 41603U 16040E   26039.18001216  .00004298  00000+0  14073-3 0  9994
2 41603  97.1466  39.6786 0012320 114.1305 246.1227 15.32112292535051
GAOFEN-3                
1 41727U 16049A   26039.17976488  .00000169  00000+0  64590-4 0  9994
2 41727  98.4051  48.8939 0001120 106.4817 253.6496 14.42208636500053
PRATHAM                 
1 41783U 16059A   26038.99900654  .00001125  00000+0  20793-3 0  9997
2 41783  97.8300  41.5722 0029898 270.3102  89.4677 14.66980357500571
ALSAT-1N                
1 41789U 16059G   26039.12279097  .00001597  00000+0  27897-3 0  9994
2 41789  97.8028  48.2365 0024687 239.4879 120.3890 14.69046908501053
CAS-2T & KS-1Q          
1 41847U 16066G   26039.19649296  .00002214  00000+0  31859-3 0  9996
2 41847  98.3941 116.3644 0343451 160.6773 200.7821 14.44362646486171
YUNHAI-1 01             
1 41857U 16068A   26039.17444350  .00000253  00000+0  10906-3 0  9992
2 41857  98.5894  51.3501 0006583  60.1590 300.0247 14.32698458483357
RESOURCESAT-2A          
1 41877U 16074A   26039.20043765  .00000048  00000+0  42006-4 0  9999
2 41877  98.7656 113.6980 0003153  95.9025 264.2512 14.21607822475977
TANSAT                  
1 41898U 16081A   26039.19096683  .00000606  00000+0  13695-3 0  9996
2 41898  98.5336  35.6697 0020545 351.1342   8.9491 14.59842667485805
JILIN-1 03              
1 41914U 17002B   26039.16790739  .00015539  00000+0  41653-3 0  9995
2 41914  97.1999  48.3622 0003928 283.9966  76.0843 15.38064180502006
CARTOSAT-2D             
1 41948U 17008A   26039.19810860  .00003801  00000+0  18373-3 0  9991
2 41948  97.4288 100.7918 0005007 339.9983  20.1055 15.19214226497992
CARTOSAT-2E             
1 42767U 17036C   26039.14900836  .00004195  00000+0  20232-3 0  9994
2 42767  97.4459 100.9578 0004236  40.9893 319.1660 15.19241183478554
D-SAT                   
1 42794U 17036AF  26038.93589169  .00009010  00000+0  44554-3 0  9996
2 42794  97.5445  18.4824 0082975 248.8789 110.3559 15.15028032471278
IRIDIUM 113             
1 42803U 17039A   26039.02906523 -.00000042  00000+0 -22033-4 0  9995
2 42803  86.3979  16.1381 0002226  88.9958 271.1493 14.34217346452676
NORSAT 2                
1 42828U 17042D   26039.04001036  .00014833  00000+0  71345-3 0  9993
2 42828  97.3941 214.8553 0010466 140.5973 219.6025 15.18843512468116
TECHNOSAT               
1 42829U 17042E   26039.02395507  .00004451  00000+0  32529-3 0  9997
2 42829  97.4097 201.8008 0018151 170.0880 190.0708 15.03996986467280
FLYING LAPTOP           
1 42831U 17042G   26039.16747865  .00002197  00000+0  17933-3 0  9990
2 42831  97.4223 200.1714 0015701 197.1682 162.9013 15.00308379467106
WNISAT 1R               
1 42835U 17042L   26038.99662179  .00004634  00000+0  36811-3 0  9992
2 42835  97.4371 200.0850 0011771 232.0739 127.9422 15.00883624467127
LEMUR-2-GREENBERG       
1 42837U 17042N   26039.04577425  .00020712  00000+0  78680-3 0  9995
2 42837  97.3748 220.7113 0010284 100.7979 259.4418 15.26789935468655
LEMUR-2-FURIAUS         
1 42840U 17042R   26039.04945237  .00024914  00000+0  10065-2 0  9999
2 42840  97.3728 219.0144 0007547 159.0309 201.1239 15.24721048468490
CORVUS BC2              
1 42846U 17042X   26039.14958566  .00005577  00000+0  39311-3 0  9995
2 42846  97.3892 205.7054 0013165 189.7647 170.3327 15.05309708467643
CORVUS BC1              
1 42847U 17042Y   26038.96123755  .00003861  00000+0  27171-3 0  9994
2 42847  97.3922 206.2481 0012350 165.3194 194.8394 15.05558751467649
VRSS-2                  
1 42954U 17060A   26039.21570553  .00000448  00000+0  64268-4 0  9991
2 42954  97.6704  82.6516 0017614 157.1565 203.0435 14.80952186449363
MOHAMMED VI-A           
1 43005U 17070A   26039.16245289  .00001036  00000+0  15393-3 0  9997
2 43005  97.9486 113.3465 0001136  89.7081 270.4259 14.77070967444935
FENGYUN 3D              
1 43010U 17072A   26039.17708089  .00000518  00000+0  26676-3 0  9998
2 43010  98.9984  11.3735 0002472  66.0391 294.1043 14.19707114426681
CZ-4C R/B               
1 43012U 17072C   26038.87950421  .00000849  00000+0  17523-3 0  9993
2 43012  98.5713 142.7387 0122577 189.7277 170.1546 14.58647383437784
NOAA 20 (JPSS-1)        
1 43013U 17073A   26039.08356108  .00000130  00000+0  82771-4 0  9992
2 43013  98.7659 339.7713 0000308  14.6039 345.5146 14.19528116426158
MAKERSAT 0              
1 43016U 17073D   26038.62411282  .00031018  00000+0  96589-3 0  9999
2 43016  97.4832 280.5264 0121375  12.7994 347.6278 15.26217982446663
RADFXSAT (FOX-1B)       
1 43017U 17073E   26039.18317815  .00011200  00000+0  51009-3 0  9998
2 43017  97.4901 269.1087 0158719  53.5069 308.0663 15.10200931445909
JILIN-1 04              
1 43022U 17074A   26039.16505171  .00017430  00000+0  45661-3 0  9995
2 43022  97.4770 145.7790 0003311 307.5205  52.5739 15.38758868454407
JILIN-1 05              
1 43023U 17074B   26039.13423059  .00007451  00000+0  24364-3 0  9996
2 43023  97.4790 143.8141 0004695 341.7016  18.4056 15.32002553454236
JILIN-1 06              
1 43024U 17074C   26039.16897848  .00008953  00000+0  29235-3 0  9991
2 43024  97.4730 140.9811 0006725 349.9175  10.1931 15.31974789454076
IRIDIUM 116             
1 43072U 17083C   26039.00369364  .00000141  00000+0  43410-4 0  9997
2 43072  86.3975  15.9810 0001882  84.8786 275.2624 14.34217366425657
IRIDIUM 130             
1 43073U 17083D   26038.97197979  .00000157  00000+0  49149-4 0  9996
2 43073  86.3987  16.2564 0002074  79.6622 280.4808 14.34216388425594
LKW-2                   
1 43080U 17084A   26039.19557970  .00008126  00000+0  33334-3 0  9993
2 43080  97.1387  85.0586 0002102  25.8646 334.2697 15.24482969452027
SUPERVIEW-1 03          
1 43099U 18002A   26039.20595618  .00018687  00000+0  53384-3 0  9997
2 43099  97.3210 124.6254 0050743 285.0742  74.4890 15.34739907448556
CARTOSAT-2F             
1 43111U 18004A   26039.18126529  .00005497  00000+0  26354-3 0  9994
2 43111  97.4215 100.8615 0001283   7.1765 352.9488 15.19312821447749
LKW-3                   
1 43146U 18006A   26039.21181685  .00005125  00000+0  16718-3 0  9993
2 43146  97.6433 195.1444 0003904  53.6711 306.4890 15.32260179448944
ASNARO-2                
1 43152U 18007A   26039.16292355  .00010723  00000+0  46657-3 0  9997
2 43152  97.4029  48.0656 0001889  85.8247 274.3206 15.22420273447789
JILIN-1 07              
1 43159U 18008E   26039.16217811  .00009767  00000+0  31434-3 0  9992
2 43159  97.1902  62.6567 0009492 150.8792 209.2982 15.32378464445222
JILIN-1 08              
1 43160U 18008F   26039.15672177  .00008895  00000+0  29337-3 0  9993
2 43160  97.1927  62.0800 0006785 160.0506 200.1002 15.31636698445186
LEMUR-2-KADI            
1 43184U 18014E   26038.73658804  .00093776  00000+0  12073-2 0  9990
2 43184  97.4774 321.7840 0005971  53.3404 306.8400 15.58715233440713
S-NET D                 
1 43186U 18014G   26038.69662983  .00007811  00000+0  41868-3 0  9990
2 43186  97.5459 304.3554 0010201 103.5028 256.7342 15.15217498439143
S-NET B                 
1 43187U 18014H   26039.16792777  .00006516  00000+0  35007-3 0  9998
2 43187  97.5463 304.8057 0010976  98.6932 261.5543 15.15195277439214
S-NET A                 
1 43188U 18014J   26038.69610415  .00007881  00000+0  42227-3 0  9992
2 43188  97.5473 304.5229 0010790 100.3827 259.8622 15.15223455439142
S-NET C                 
1 43189U 18014K   26038.70884715  .00007386  00000+0  39626-3 0  9990
2 43189  97.5491 304.5901 0012337  94.3896 265.8746 15.15183086437694
PAZ                     
1 43215U 18020A   26039.20278785  .00002685  00000+0  13100-3 0  9993
2 43215  97.4459  48.4278 0001654  91.8477 268.2947 15.19148316441422
GOES 17                 
1 43226U 18022A   26039.10580973 -.00000176  00000+0  00000+0 0  9996
2 43226   0.6052  88.1256 0002668 214.9368 143.6706  1.00269790 29122
LKW-4                   
1 43236U 18025A   26038.98617889  .00038274  00000+0  63122-3 0  9999
2 43236  97.6225 200.8325 0003503  55.3395 304.8187 15.52195219439920
ZHUHAI-1 OVS-02         
1 43440U 18040B   26039.22449713  .00007436  00000+0  31627-3 0  9991
2 43440  97.0523  64.1741 0004013  24.7473 335.3957 15.23276295433075
ZHUHAI-1 OHS-02         
1 43441U 18040C   26039.20899442  .00007648  00000+0  31850-3 0  9991
2 43441  97.0538  70.9651 0008803 339.3074  20.7807 15.23958981 94622
GAOFEN-6                
1 43484U 18048A   26039.18257927  .00000574  00000+0  89167-4 0  9995
2 43484  97.7930 106.4950 0011074 229.5488 130.4757 14.76604879414352
LUOJIA-1 01             
1 43485U 18048B   26039.17972836  .00004449  00000+0  50587-3 0  9996
2 43485  97.8202 119.4446 0009166 177.4894 182.6369 14.86718616415042
PAKTES 1A               
1 43529U 18056A   26039.15100311  .00002351  00000+0  20196-3 0  9996
2 43529  98.1058 190.3512 0021899 176.8477 183.2887 14.98324531412594
PRSS-1                  
1 43530U 18056B   26039.15287712  .00001538  00000+0  20153-3 0  9998
2 43530  97.7972 110.5316 0001671  86.9848 273.1556 14.81746559409320
HAIYANG-1C              
1 43609U 18068A   26039.17535784  .00000134  00000+0  63480-4 0  9997
2 43609  98.5332 113.2812 0011888 115.0846 245.1574 14.34133572388597
SSTL S1-4               
1 43618U 18071A   26039.21483505  .00001908  00000+0  17361-3 0  9995
2 43618  97.5228 276.0312 0001410 109.5076 250.6298 14.96311374403651
HAIYANG-2B              
1 43655U 18081A   26039.18911059  .00000202  00000+0  23942-3 0  9991
2 43655  99.3336  49.8700 0000170 274.5480  85.5652 13.79305350367142
CZ-4B R/B               
1 43656U 18081B   26038.69861116  .00000362  00000+0  12565-3 0  9991
2 43656  99.3738 306.2869 0203965 279.8293  77.9914 14.31807938380770
CFOSAT                  
1 43662U 18083A   26039.22101488  .00005080  00000+0  26463-3 0  9993
2 43662  97.3635  47.5329 0000510  36.6455 323.4813 15.16431939402890
